{"type": "FeatureCollection", "features": [{"type": "Feature", "properties": {"norad_id": 26766, "name": "INTELSAT 10 (IS-10)", "group": "intelsat", "lat": -3.4087259317033918, "lon": 37.97238523273265, "alt_km": 36138.807153487214, "timestamp": "2025-12-08T10:52:02.616790+00:00", "meta": {"OBJECT_NAME": "INTELSAT 10 (IS-10)", "OBJECT_ID": "2001-019A", "EPOCH": "2025-12-07T12:34:38.803008", "MEAN_MOTION": 0.99078913, "ECCENTRICITY": 0.00078602, "INCLINATION": 8.6172, "RA_OF_ASC_NODE": 61.2081, "ARG_OF_PERICENTER": 221.0792, "MEAN_ANOMALY": 144.0907, "EPHEMERIS_TYPE": 0, "CLASSIFICATION_TYPE": "U", "NORAD_CAT_ID": 26766, "ELEMENT_SET_NO": 999, "REV_AT_EPOCH": 4368, "BSTAR": 0, "MEAN_MOTION_DOT": -2.59e-06, "MEAN_MOTION_DDOT": 0}, "tle": {"line1": "1 26766U 01019A   25341.52406022 -.00000259  00000+0  00000+0 0  9999", "line2": "2 26766   8.6172  61.2081 0007860 221.0792 144.0907  0.99078913 43687"}}, "geometry": {"type": "Point", "coordinates": [37.97238523273265, -3.4087259317033918]}}, {"type": "Feature", "properties": {"norad_id": 26900, "name": "INTELSAT 902 (IS-902)", "group": "intelsat", "lat": 5.051212830353154, "lon": -169.63363591034081, "alt_km": 35777.23123120152, "timestamp": "2025-12-08T10:52:02.616814+00:00", "meta": {"OBJECT_NAME": "INTELSAT 902 (IS-902)", "OBJECT_ID": "2001-039A", "EPOCH": "2025-12-01T16:59:59.311968", "MEAN_MOTION": 1.00270327, "ECCENTRICITY": 0.00043097, "INCLINATION": 5.6187, "RA_OF_ASC_NODE": 74.2002, "ARG_OF_PERICENTER": 175.119, "MEAN_ANOMALY": 26.3816, "EPHEMERIS_TYPE": 0, "CLASSIFICATION_TYPE": "U", "NORAD_CAT_ID": 26900, "ELEMENT_SET_NO": 999, "REV_AT_EPOCH": 8871, "BSTAR": 0, "MEAN_MOTION_DOT": -2.63e-06, "MEAN_MOTION_DDOT": 0}, "tle": {"line1": "1 26900U 01039A   25335.70832537 -.00000263  00000+0  00000+0 0  9993", "line2": "2 26900   5.6187  74.2002 0004309 175.1190  26.3816  1.00270327 88713"}}, "geometry": {"type": "Point", "coordinates": [-169.63363591034081, 5.051212830353154]}}, {"type": "Feature", "properties": {"norad_id": 27380, "name": "INTELSAT 904 (IS-904)", "group": "intelsat", "lat": 4.341739152306492, "lon": -150.90173751542034, "alt_km": 35784.85192461635, "timestamp": "2025-12-08T10:52:02.616830+00:00", "meta": {"OBJECT_NAME": "INTELSAT 904 (IS-904)", "OBJECT_ID": "2002-007A", "EPOCH": "2025-12-07T15:11:43.504224", "MEAN_MOTION": 1.00268519, "ECCENTRICITY": 0.0001753, "INCLINATION": 6.4419, "RA_OF_ASC_NODE": 71.4901, "ARG_OF_PERICENTER": 214.7448, "MEAN_ANOMALY": 346.82, "EPHEMERIS_TYPE": 0, "CLASSIFICATION_TYPE": "U", "NORAD_CAT_ID": 27380, "ELEMENT_SET_NO": 999, "REV_AT_EPOCH": 4984, "BSTAR": 0, "MEAN_MOTION_DOT": -2.25e-06, "MEAN_MOTION_DDOT": 0}, "tle": {"line1": "1 27380U 02007A   25341.63314241 -.00000225  00000+0  00000+0 0  9996", "line2": "2 27380   6.4419  71.4901 0001753 214.7448 346.8200  1.00268519 49844"}}, "geometry": {"type": "Point", "coordinates": [-150.90173751542034, 4.341739152306492]}}, {"type": "Feature", "properties": {"norad_id": 27426, "name": "DIRECTV 5 (TEMPO 1)", "group": "intelsat", "lat": 3.5029502768076375, "lon": 130.2448892831467, "alt_km": 35799.19469435504, "timestamp": "2025-12-08T10:52:02.616843+00:00", "meta": {"OBJECT_NAME": "DIRECTV 5 (TEMPO 1)", "OBJECT_ID": "2002-023A", "EPOCH": "2025-12-07T21:40:19.830720", "MEAN_MOTION": 1.00271738, "ECCENTRICITY": 0.0003913, "INCLINATION": 4.3896, "RA_OF_ASC_NODE": 77.7079, "ARG_OF_PERICENTER": 197.7069, "MEAN_ANOMALY": 16.467, "EPHEMERIS_TYPE": 0, "CLASSIFICATION_TYPE": "U", "NORAD_CAT_ID": 27426, "ELEMENT_SET_NO": 999, "REV_AT_EPOCH": 8620, "BSTAR": 0, "MEAN_MOTION_DOT": -5.5e-07, "MEAN_MOTION_DDOT": 0}, "tle": {"line1": "1 27426U 02023A   25341.90300730 -.00000055  00000+0  00000+0 0  9994", "line2": "2 27426   4.3896  77.7079 0003913 197.7069  16.4670  1.00271738 86204"}}, "geometry": {"type": "Point", "coordinates": [130.2448892831467, 3.5029502768076375]}}, {"type": "Feature", "properties": {"norad_id": 27438, "name": "INTELSAT 905 (IS-905)", "group": "intelsat", "lat": 3.2680795079176126, "lon": 103.17150960295241, "alt_km": 35797.013236033774, "timestamp": "2025-12-08T10:52:02.616856+00:00", "meta": {"OBJECT_NAME": "INTELSAT 905 (IS-905)", "OBJECT_ID": "2002-027A", "EPOCH": "2025-12-03T09:40:44.149728", "MEAN_MOTION": 1.00273288, "ECCENTRICITY": 0.00031296, "INCLINATION": 6.2606, "RA_OF_ASC_NODE": 72.1621, "ARG_OF_PERICENTER": 189.1417, "MEAN_ANOMALY": 179.1858, "EPHEMERIS_TYPE": 0, "CLASSIFICATION_TYPE": "U", "NORAD_CAT_ID": 27438, "ELEMENT_SET_NO": 999, "REV_AT_EPOCH": 4940, "BSTAR": 0, "MEAN_MOTION_DOT": 1.09e-06, "MEAN_MOTION_DDOT": 0}, "tle": {"line1": "1 27438U 02027A   25337.40328877  .00000109  00000+0  00000+0 0  9992", "line2": "2 27438   6.2606  72.1621 0003129 189.1417 179.1858  1.00273288 49408"}}, "geometry": {"type": "Point", "coordinates": [103.17150960295241, 3.2680795079176126]}}, {"type": "Feature", "properties": {"norad_id": 27445, "name": "GALAXY 3C (G-3C)", "group": "intelsat", "lat": 2.958318254946457, "lon": 145.56429703209017, "alt_km": 35782.127609411225, "timestamp": "2025-12-08T10:52:02.616869+00:00", "meta": {"OBJECT_NAME": "GALAXY 3C (G-3C)", "OBJECT_ID": "2002-030A", "EPOCH": "2025-12-07T21:44:34.424736", "MEAN_MOTION": 1.00270856, "ECCENTRICITY": 0.00011351, "INCLINATION": 3.2519, "RA_OF_ASC_NODE": 80.5535, "ARG_OF_PERICENTER": 100.9691, "MEAN_ANOMALY": 126.6806, "EPHEMERIS_TYPE": 0, "CLASSIFICATION_TYPE": "U", "NORAD_CAT_ID": 27445, "ELEMENT_SET_NO": 999, "REV_AT_EPOCH": 4457, "BSTAR": 0, "MEAN_MOTION_DOT": -1.5e-06, "MEAN_MOTION_DDOT": 0}, "tle": {"line1": "1 27445U 02030A   25341.90595399 -.00000150  00000+0  00000+0 0  9996", "line2": "2 27445   3.2519  80.5535 0001135 100.9691 126.6806  1.00270856 44574"}}, "geometry": {"type": "Point", "coordinates": [145.56429703209017, 2.958318254946457]}}, {"type": "Feature", "properties": {"norad_id": 27513, "name": "INTELSAT 906 (IS-906)", "group": "intelsat", "lat": -4.050397976978318, "lon": -55.467445942875685, "alt_km": 35767.312806006084, "timestamp": "2025-12-08T10:52:02.616880+00:00", "meta": {"OBJECT_NAME": "INTELSAT 906 (IS-906)", "OBJECT_ID": "2002-041A", "EPOCH": "2025-12-07T20:47:17.411136", "MEAN_MOTION": 1.00270663, "ECCENTRICITY": 0.00060751, "INCLINATION": 5.3164, "RA_OF_ASC_NODE": 75.2895, "ARG_OF_PERICENTER": 188.9426, "MEAN_ANOMALY": 188.6099, "EPHEMERIS_TYPE": 0, "CLASSIFICATION_TYPE": "U", "NORAD_CAT_ID": 27513, "ELEMENT_SET_NO": 999, "REV_AT_EPOCH": 8511, "BSTAR": 0, "MEAN_MOTION_DOT": 1.4e-07, "MEAN_MOTION_DDOT": 0}, "tle": {"line1": "1 27513U 02041A   25341.86617374  .00000014  00000+0  00000+0 0  9995", "line2": "2 27513   5.3164  75.2895 0006075 188.9426 188.6099  1.00270663 85112"}}, "geometry": {"type": "Point", "coordinates": [-55.467445942875685, -4.050397976978318]}}, {"type": "Feature", "properties": {"norad_id": 27954, "name": "GALAXY 13 (HORIZONS-1)", "group": "intelsat", "lat": 0.08547376156522814, "lon": 90.4639739731726, "alt_km": 35794.41739588232, "timestamp": "2025-12-08T10:52:02.616894+00:00", "meta": {"OBJECT_NAME": "GALAXY 13 (HORIZONS-1)", "OBJECT_ID": "2003-044A", "EPOCH": "2025-12-07T18:03:27.057600", "MEAN_MOTION": 1.00269087, "ECCENTRICITY": 0.0001999, "INCLINATION": 0.9225, "RA_OF_ASC_NODE": 86.5355, "ARG_OF_PERICENTER": 158.8456, "MEAN_ANOMALY": 312.265, "EPHEMERIS_TYPE": 0, "CLASSIFICATION_TYPE": "U", "NORAD_CAT_ID": 27954, "ELEMENT_SET_NO": 999, "REV_AT_EPOCH": 4465, "BSTAR": 0, "MEAN_MOTION_DOT": 1.36e-06, "MEAN_MOTION_DDOT": 0}, "tle": {"line1": "1 27954U 03044A   25341.75239650  .00000136  00000+0  00000+0 0  9998", "line2": "2 27954   0.9225  86.5355 0001999 158.8456 312.2650  1.00269087 44655"}}, "geometry": {"type": "Point", "coordinates": [90.4639739731726, 0.08547376156522814]}}, {"type": "Feature", "properties": {"norad_id": 28358, "name": "INTELSAT 10-02", "group": "intelsat", "lat": -0.01238111477032534, "lon": -120.51628522705481, "alt_km": 35781.613202864966, "timestamp": "2025-12-08T10:52:02.616920+00:00", "meta": {"OBJECT_NAME": "INTELSAT 10-02", "OBJECT_ID": "2004-022A", "EPOCH": "2025-12-07T22:11:23.013888", "MEAN_MOTION": 1.00275173, "ECCENTRICITY": 0.00012067, "INCLINATION": 0.0341, "RA_OF_ASC_NODE": 72.1801, "ARG_OF_PERICENTER": 214.154, "MEAN_ANOMALY": 122.4724, "EPHEMERIS_TYPE": 0, "CLASSIFICATION_TYPE": "U", "NORAD_CAT_ID": 28358, "ELEMENT_SET_NO": 999, "REV_AT_EPOCH": 7863, "BSTAR": 0, "MEAN_MOTION_DOT": -7e-08, "MEAN_MOTION_DDOT": 0}, "tle": {"line1": "1 28358U 04022A   25341.92457192 -.00000007  00000+0  00000+0 0  9994", "line2": "2 28358   0.0341  72.1801 0001206 214.1540 122.4724  1.00275173 78633"}}, "geometry": {"type": "Point", "coordinates": [-120.51628522705481, -0.01238111477032534]}}, {"type": "Feature", "properties": {"norad_id": 28626, "name": "XM-3 (RHYTHM)", "group": "intelsat", "lat": -0.13471323007403338, "lon": 15.143423914301804, "alt_km": 36155.0555009784, "timestamp": "2025-12-08T10:52:02.616943+00:00", "meta": {"OBJECT_NAME": "XM-3 (RHYTHM)", "OBJECT_ID": "2005-008A", "EPOCH": "2025-12-07T22:50:49.236864", "MEAN_MOTION": 0.989542, "ECCENTRICITY": 0.00012808, "INCLINATION": 0.1621, "RA_OF_ASC_NODE": 81.1065, "ARG_OF_PERICENTER": 261.5822, "MEAN_ANOMALY": 214.0283, "EPHEMERIS_TYPE": 0, "CLASSIFICATION_TYPE": "U", "NORAD_CAT_ID": 28626, "ELEMENT_SET_NO": 999, "REV_AT_EPOCH": 4070, "BSTAR": 0, "MEAN_MOTION_DOT": -2.61e-06, "MEAN_MOTION_DDOT": 0}, "tle": {"line1": "1 28626U 05008A   25341.95195876 -.00000261  00000+0  00000+0 0  9990", "line2": "2 28626   0.1621  81.1065 0001280 261.5822 214.0283  0.98954200 40702"}}, "geometry": {"type": "Point", "coordinates": [15.143423914301804, -0.13471323007403338]}}]}